$$SOE
2460721.500000000, A.D. 2025-Feb-15 00:00:00.0000, -3.382278803730612E+08, 1.863469989094412E+08, 7.095916074140528E+07,
2460728.500000000, A.D. 2025-Feb-22 00:00:00.0000, -3.438875106924161E+08, 1.764666843088241E+08, 7.124394714870071E+07,
2460735.500000000, A.D. 2025-Mar-01 00:00:00.0000, -3.492721534116508E+08, 1.664452574912607E+08, 7.147176449510272E+07,
2460742.500000000, A.D. 2025-Mar-08 00:00:00.0000, -3.543783901062059E+08, 1.562911530556943E+08, 7.164261228307727E+07,
2460749.500000000, A.D. 2025-Mar-15 00:00:00.0000, -3.592030774454430E+08, 1.460128739812457E+08, 7.175654203603342E+07,
2460756.500000000, A.D. 2025-Mar-22 00:00:00.0000, -3.637433496636350E+08, 1.356189814059668E+08, 7.181365684265798E+07,
2460763.500000000, A.D. 2025-Mar-29 00:00:00.0000, -3.679966191945705E+08, 1.251180822729918E+08, 7.181411051921292E+07,
2460770.500000000, A.D. 2025-Apr-05 00:00:00.0000, -3.719605751585804E+08, 1.145188180028274E+08, 7.175810662075600E+07,
2460777.500000000, A.D. 2025-Apr-12 00:00:00.0000, -3.756331816482995E+08, 1.038298543165510E+08, 7.164589749202524E+07,
2460784.500000000, A.D. 2025-Apr-19 00:00:00.0000, -3.790126760219707E+08, 9.305987135298899E+07, 7.147778330913141E+07,
2460791.500000000, A.D. 2025-Apr-26 00:00:00.0000, -3.820975669502306E+08, 8.221755390021774E+07, 7.125411107520621E+07,
2460798.500000000, A.D. 2025-May-03 00:00:00.0000, -3.848866321184936E+08, 7.131158177998841E+07, 7.097527356474023E+07,
2460805.500000000, A.D. 2025-May-10 00:00:00.0000, -3.873789155727464E+08, 6.035062040992042E+07, 7.064170821804962E+07,
2460812.500000000, A.D. 2025-May-17 00:00:00.0000, -3.895737246895656E+08, 4.934331151642595E+07, 7.025389598263234E+07,
2460819.500000000, A.D. 2025-May-24 00:00:00.0000, -3.914706266148964E+08, 3.829826395628862E+07, 6.981236008467665E+07,
2460826.500000000, A.D. 2025-May-31 00:00:00.0000, -3.930694437726652E+08, 2.722404496883243E+07, 6.931766472156295E+07,
2460833.500000000, A.D. 2025-Jun-07 00:00:00.0000, -3.943702488631071E+08, 1.612917307269694E+07, 6.877041381430081E+07,
2460840.500000000, A.D. 2025-Jun-14 00:00:00.0000, -3.953733617356997E+08, 5.022111947497334E+06, 6.817124998620109E+07,
2460847.500000000, A.D. 2025-Jun-21 00:00:00.0000, -3.960793469428551E+08, -6.088737964225087E+06, 6.752085339341012E+07,
2460854.500000000, A.D. 2025-Jun-28 00:00:00.0000, -3.964890088666996E+08, -1.719504836224971E+07, 6.681994026880014E+07,
2460861.500000000, A.D. 2025-Jul-05 00:00:00.0000, -3.966033859518844E+08, -2.828857033958071E+07, 6.606926149753092E+07,
2460868.500000000, A.D. 2025-Jul-12 00:00:00.0000, -3.964237452536325E+08, -3.936114078326555E+07, 6.526960127082066E+07,
2460875.500000000, A.D. 2025-Jul-19 00:00:00.0000, -3.959515771325788E+08, -5.040468849945711E+07, 6.442177575740845E+07,
2460882.500000000, A.D. 2025-Jul-26 00:00:00.0000, -3.951885899067560E+08, -6.141124011805277E+07, 6.352663177261274E+07,
2460889.500000000, A.D. 2025-Aug-02 00:00:00.0000, -3.941367044138336E+08, -7.237292575498354E+07, 6.258504544408260E+07,
2460896.500000000, A.D. 2025-Aug-09 00:00:00.0000, -3.927980484777780E+08, -8.328198444790049E+07, 6.159792087395704E+07,
2460903.500000000, A.D. 2025-Aug-16 00:00:00.0000, -3.911749512201203E+08, -9.413076943070573E+07, 6.056618878814041E+07,
2460910.500000000, A.D. 2025-Aug-23 00:00:00.0000, -3.892699369398017E+08, -1.049117532335025E+08, 5.949080515002009E+07,
2460917.500000000, A.D. 2025-Aug-30 00:00:00.0000, -3.870857182483070E+08, -1.156175318976924E+08, 5.837274976942064E+07,
2460924.500000000, A.D. 2025-Sep-06 00:00:00.0000, -3.846251898926575E+08, -1.262408273107959E+08, 5.721302512094174E+07,
2460931.500000000, A.D. 2025-Sep-13 00:00:00.0000, -3.818914249517396E+08, -1.367744901505928E+08, 5.601265532435301E+07,
2460938.500000000, A.D. 2025-Sep-20 00:00:00.0000, -3.788876701491073E+08, -1.472115050902296E+08, 5.477268485515499E+07,
2460945.500000000, A.D. 2025-Sep-27 00:00:00.0000, -3.756173392381275E+08, -1.575449951581720E+08, 5.349417714485797E+07,
2460952.500000000, A.D. 2025-Oct-04 00:00:00.0000, -3.720840064867098E+08, -1.677682247195046E+08, 5.217821330144435E+07,
2460959.500000000, A.D. 2025-Oct-11 00:00:00.0000, -3.682914006452352E+08, -1.778746020299353E+08, 5.082589090837444E+07,
2460966.500000000, A.D. 2025-Oct-18 00:00:00.0000, -3.642433991255533E+08, -1.878576816466425E+08, 4.943832285513926E+07,
2460973.500000000, A.D. 2025-Oct-25 00:00:00.0000, -3.599440222634923E+08, -1.977111666941574E+08, 4.801663618898266E+07,
2460980.500000000, A.D. 2025-Nov-01 00:00:00.0000, -3.553974276364493E+08, -2.074289109782844E+08, 4.656197098666888E+07,
2460987.500000000, A.D. 2025-Nov-08 00:00:00.0000, -3.506079044113746E+08, -2.170049209875939E+08, 4.507547924142106E+07,
2460994.500000000, A.D. 2025-Nov-15 00:00:00.0000, -3.455798675840621E+08, -2.264333578485863E+08, 4.355832374719873E+07,
2461001.500000000, A.D. 2025-Nov-22 00:00:00.0000, -3.403178517141315E+08, -2.357085390210781E+08, 4.201167696147872E+07,
2461008.500000000, A.D. 2025-Nov-29 00:00:00.0000, -3.348265043133155E+08, -2.448249386049825E+08, 4.043671995301379E+07,
2461015.500000000, A.D. 2025-Dec-06 00:00:00.0000, -3.291105811662835E+08, -2.537771864020868E+08, 3.883464163174604E+07,
2461022.500000000, A.D. 2025-Dec-13 00:00:00.0000, -3.231749431527529E+08, -2.625600691145429E+08, 3.720663794547947E+07,
2461029.500000000, A.D. 2025-Dec-20 00:00:00.0000, -3.170245510837432E+08, -2.711685326702865E+08, 3.555391080718438E+07,
2461036.500000000, A.D. 2025-Dec-27 00:00:00.0000, -3.106644596331452E+08, -2.795976830951579E+08, 3.387766706402980E+07,
2461043.500000000, A.D. 2026-Jan-03 00:00:00.0000, -3.040998118296356E+08, -2.878427865555979E+08, 3.217911759203774E+07,
2461050.500000000, A.D. 2026-Jan-10 00:00:00.0000, -2.973358340029883E+08, -2.958992692582600E+08, 3.045947645069771E+07,
2461057.500000000, A.D. 2026-Jan-17 00:00:00.0000, -2.903778309549156E+08, -3.037627173058749E+08, 2.871996006845380E+07,
2461064.500000000, A.D. 2026-Jan-24 00:00:00.0000, -2.832311812788232E+08, -3.114288764945679E+08, 2.696178645354548E+07,
2461071.500000000, A.D. 2026-Jan-31 00:00:00.0000, -2.759013328068175E+08, -3.188936520674440E+08, 2.518617442721316E+07,
2461078.500000000, A.D. 2026-Feb-07 00:00:00.0000, -2.683937981234606E+08, -3.261531084888378E+08, 2.339434286862585E+07,
2461085.500000000, A.D. 2026-Feb-14 00:00:00.0000, -2.607141498936479E+08, -3.332034692615111E+08, 2.158750994668287E+07,
2461092.500000000, A.D. 2026-Feb-21 00:00:00.0000, -2.528680156171402E+08, -3.400411162166354E+08, 1.976689234987538E+07,
2461099.500000000, A.D. 2026-Feb-28 00:00:00.0000, -2.448610728940707E+08, -3.466625871294698E+08, 1.793370470746456E+07,
2461106.500000000, A.D. 2026-Mar-07 00:00:00.0000, -2.366990472584689E+08, -3.530645736172074E+08, 1.608915923078208E+07,
2461113.500000000, A.D. 2026-Mar-14 00:00:00.0000, -2.283877098028766E+08, -3.592439216598615E+08, 1.423446512884870E+07,
2461120.500000000, A.D. 2026-Mar-21 00:00:00.0000, -2.199328728112080E+08, -3.651976318546527E+08, 1.237082787124012E+07,
2461127.500000000, A.D. 2026-Mar-28 00:00:00.0000, -2.113403854089617E+08, -3.709228583818983E+08, 1.049944856616567E+07,
2461134.500000000, A.D. 2026-Apr-04 00:00:00.0000, -2.026161298331048E+08, -3.764169076535158E+08, 8.621523429689303E+06,
2461141.500000000, A.D. 2026-Apr-11 00:00:00.0000, -1.937660180454325E+08, -3.816772370094113E+08, 6.738243290938154E+06,
2461148.500000000, A.D. 2026-Apr-18 00:00:00.0000, -1.847959885273419E+08, -3.867014534743107E+08, 4.850793117500186E+06,
2461155.500000000, A.D. 2026-Apr-25 00:00:00.0000, -1.757120032076149E+08, -3.914873125667936E+08, 2.960351557413995E+06,
2461162.500000000, A.D. 2026-May-02 00:00:00.0000, -1.665200444904130E+08, -3.960327171964831E+08, 1.068090491966099E+06,
2461169.500000000, A.D. 2026-May-09 00:00:00.0000, -1.572261122569215E+08, -4.003357167211761E+08, -8.248254181301296E+05,
2461176.500000000, A.D. 2026-May-16 00:00:00.0000, -1.478362204605682E+08, -4.043945060303121E+08, -2.717239217203528E+06,
2461183.500000000, A.D. 2026-May-23 00:00:00.0000, -1.383563932616797E+08, -4.082074236362349E+08, -4.608002091683298E+06,
2461190.500000000, A.D. 2026-May-30 00:00:00.0000, -1.287926627771264E+08, -4.117729484561901E+08, -6.495973543801188E+06,
2461197.500000000, A.D. 2026-Jun-06 00:00:00.0000, -1.191510687581650E+08, -4.150896985607767E+08, -8.380021541255534E+06,
2461204.500000000, A.D. 2026-Jun-13 00:00:00.0000, -1.094376565262525E+08, -4.181564316937814E+08, -1.025902296370527E+07,
2461211.500000000, A.D. 2026-Jun-20 00:00:00.0000, -9.965847366433115E+07, -4.209720446418703E+08, -1.213186406181476E+07,
2461218.500000000, A.D. 2026-Jun-27 00:00:00.0000, -8.981956715846084E+07, -4.235355717979548E+08, -1.399744080168173E+07,
2461225.500000000, A.D. 2026-Jul-04 00:00:00.0000, -7.992698098639597E+07, -4.258461836969289E+08, -1.585465915890154E+07,
2461232.500000000, A.D. 2026-Jul-11 00:00:00.0000, -6.998675389594726E+07, -4.279031856594527E+08, -1.770243539739424E+07,
2461239.500000000, A.D. 2026-Jul-18 00:00:00.0000, -6.000491727745677E+07, -4.297060165216773E+08, -1.953969634054908E+07,
2461246.500000000, A.D. 2026-Jul-25 00:00:00.0000, -4.998749310341093E+07, -4.312542474516604E+08, -2.136537963787130E+07,
2461253.500000000, A.D. 2026-Aug-01 00:00:00.0000, -3.994049188525261E+07, -4.325475809033812E+08, -2.317843403650293E+07,
2461260.500000000, A.D. 2026-Aug-08 00:00:00.0000, -2.986991043094157E+07, -4.335858497454128E+08, -2.497781968103153E+07,
2461267.500000000, A.D. 2026-Aug-15 00:00:00.0000, -1.978172898583967E+07, -4.343690161133951E+08, -2.676250844338450E+07,
2461274.500000000, A.D. 2026-Aug-22 00:00:00.0000, -9.681908514134241E+06, -4.348971687639616E+08, -2.853148411364213E+07,
2461281.500000000, A.D. 2026-Aug-29 00:00:00.0000, 4.236095952531639E+05, -4.351705203022960E+08, -3.028374235454434E+07,
$$EOE